OSCAR 7 (AO-7)          
1 07530U 74089B   18300.88451910 -.00000044  00000-0  55177-5 0  9990
2 07530 101.7066 266.2996 0012480  78.2668 338.8098 12.53635049 10985
UOSAT 2 (UO-11)         
1 14781U 84021B   18300.91866594  .00000051  00000-0  12485-4 0  9996
2 14781  97.6366 331.3817 0008789  17.5737 342.5780 14.83039514843112
LUSAT (LO-19)           
1 20442U 90005G   18300.88641745  .00000003  00000-0  17368-4 0  9993
2 20442  98.6207 238.6191 0012737 116.1939 244.0556 14.32908020502839
ITAMSAT (IO-26)         
1 22826U 93061D   18300.93572609 -.00000011  00000-0  13768-4 0  9994
2 22826  98.8729 279.5796 0008193 314.5314  45.5197 14.30374935308485
RADIO ROSTO (RS-15)     
1 23439U 94085A   18300.93123413 -.00000056  00000-0 -38799-3 0  9997
2 23439  64.8135 134.1552 0152884 157.7511 308.1937 11.27568863981530
JAS-2 (FO-29)           
1 24278U 96046B   18300.66496684 -.00000050  00000-0 -17480-4 0  9990
2 24278  98.5145 121.1616 0351147 127.0674 236.3121 13.53086483 95905
TECHSAT 1B (GO-32)      
1 25397U 98043D   18300.86409874 -.00000009  00000-0  15281-4 0  9999
2 25397  98.6612 239.1684 0001697  36.6777 323.4518 14.23653786 54383
ISS (ZARYA)             
1 25544U 98067A   18301.47031196  .00001395  00000-0  28565-4 0  9992
2 25544  51.6410  74.5301 0004125 346.6092  99.1580 15.53872404139241
PCSAT (NO-44)           
1 26931U 01043C   18300.91517222 -.00000017  00000-0  25326-4 0  9991
2 26931  67.0511 246.9228 0006901 258.9715 101.0610 14.30521270891461
SAUDISAT 1C (SO-50)     
1 27607U 02058C   18300.71886570 -.00000007  00000-0  19845-4 0  9990
2 27607  64.5563  44.9022 0076889 301.0807  58.2765 14.75491157852384
CUTE-1 (CO-55)          
1 27844U 03031E   18300.93276746  .00000040  00000-0  37616-4 0  9999
2 27844  98.6875 307.6345 0009637 354.0272   6.0789 14.22140583795029
CUBESAT XI-IV (CO-57)   
1 27848U 03031J   18300.92919216  .00000028  00000-0  32618-4 0  9991
2 27848  98.6958 308.0711 0009745   4.9823 355.1450 14.21741295794893
MOZHAYETS 4 (RS-22)     
1 27939U 03042A   18301.27458368  .00000080  00000-0  22941-4 0  9995
2 27939  98.0097  77.1262 0014247  87.0584 333.9467 14.66726229806329
CUBESAT XI-V (CO-58)    
1 28895U 05043F   18300.90812882  .00000124  00000-0  32725-4 0  9994
2 28895  97.9278  87.1380 0017027  14.7217 345.4478 14.63595052693050
CUTE-1.7+APD II (CO-65) 
1 32785U 08021C   18300.77673764  .00000182  00000-0  25300-4 0  9990
2 32785  97.5472 306.6266 0012159 324.4105  35.6300 14.88195356568823
DELFI-C3 (DO-64)        
1 32789U 08021G   18300.71079798  .00001045  00000-0  74955-4 0  9994
2 32789  97.4972 352.0819 0011986 198.8304 161.2482 15.06399974571735
SEEDS II (CO-66)        
1 32791U 08021J   18300.58076159  .00000379  00000-0  44040-4 0  9991
2 32791  97.5329 312.0762 0012072 301.2733  58.7303 14.90656957569155
YUBILEINY (RS-30)       
1 32953U 08025A   18301.07974597  .00000020  00000-0  75656-4 0  9993
2 32953  82.4989 290.0267 0017967 281.3310  78.5746 12.43086346473286
KKS-1 (KISEKI)          
1 33499U 09002H   18300.90449079  .00000064  00000-0  17484-4 0  9991
2 33499  98.3570 127.0150 0008267 225.4380 134.6154 14.75374113524321
SWISSCUBE               
1 35932U 09051B   18300.91463801  .00000114  00000-0  36808-4 0  9996
2 35932  98.5627  95.4085 0008127 155.7439 204.4142 14.56208971482716
BEESAT                  
1 35933U 09051C   18300.93266461  .00000097  00000-0  32888-4 0  9996
2 35933  98.5663  97.0570 0006117 165.6586 194.4786 14.56307146482787
ITUPSAT 1               
1 35935U 09051E   18301.13142770  .00000067  00000-0  26514-4 0  9993
2 35935  98.5775  97.5111 0008483 164.0597 196.0867 14.55478224482662
XIWANG-1 (HOPE-1)       
1 36122U 09072B   18300.71707420 -.00000023  00000-0  49630-4 0  9994
2 36122 100.0741 309.1364 0007632 162.1442 197.9942 13.16347083426091
JUGNU                   
1 37839U 11058B   18300.44510425  .00000317  00000-0  27086-4 0  9990
2 37839  19.9623 315.2566 0018698 264.8418 210.1677 14.12632691364096
SRMSAT                  
1 37841U 11058D   18300.71755182  .00000310  00000-0  25241-4 0  9998
2 37841  19.9733   5.5398 0011876 145.5803 296.1816 14.10617597363529
M-CUBED & EXP-1 PRIME   
1 37855U 11061F   18300.93768024  .00000593  00000-0  38071-4 0  9998
2 37855 101.7201  71.4007 0175362  49.2587 312.3701 15.04833790381144
STRAND-1                
1 39090U 13009E   18300.79563820  .00000036  00000-0  27940-4 0  9991
2 39090  98.5077 145.3760 0008038 263.7870  96.2400 14.35055534296820
SOMP                    
1 39134U 13015E   18300.76648360  .00001317  00000-0  71021-4 0  9999
2 39134  64.8644  57.9282 0006222 309.7233  50.3345 15.19526807304669
BEESAT-3                
1 39135U 13015F   18300.81116072  .00001197  00000-0  70181-4 0  9998
2 39135  64.8688  72.8823 0009282 244.9802 115.0360 15.16964122304373
BEESAT-2                
1 39136U 13015G   18300.76213616  .00000918  00000-0  56981-4 0  9997
2 39136  64.8695  76.1893 0010777 243.1588 116.8436 15.16418346304307
ZACUBE-1 (TSHEPISOSAT)  
1 39417U 13066B   18300.94464757  .00000192  00000-0  30466-4 0  9993
2 39417  97.5781 322.4320 0060536  80.5751 280.2299 14.80999699266443
GOMX 1                  
1 39430U 13066Q   18301.06639893  .00000155  00000-0  37635-4 0  9991
2 39430  97.7132 268.4796 0150068 271.3963  87.0055 14.59147088262533
CUBEBUG-2 (LO-74)       
1 39440U 13066AA  18300.90401968  .00000186  00000-0  32762-4 0  9994
2 39440  97.6001 308.2483 0081652 123.9282 236.9726 14.75739453264298
FUNCUBE-1 (AO-73)       
1 39444U 13066AE  18300.93740372  .00000243  00000-0  36237-4 0  9991
2 39444  97.5783 324.1154 0059603  75.5917 285.1902 14.81796831264728
UWE-3                   
1 39446U 13066AG  18300.83478921  .00000184  00000-0  30989-4 0  9992
2 39446  97.5876 314.8154 0071625 102.9075 258.0150 14.78273960264124
SPROUT                  
1 39770U 14029E   18301.02720173  .00000582  00000-0  71038-4 0  9995
2 39770  97.8810  41.0183 0010208 128.2951 231.9157 14.87028270240101
UNISAT-6                
1 40012U 14033C   18300.73680796  .00000172  00000-0  33002-4 0  9998
2 40012  97.7869 171.9530 0059362 131.3070 229.3270 14.73881145234221
DUCHIFAT-1              
1 40021U 14033M   18300.72484646  .00000499  00000-0  57007-4 0  9996
2 40021  97.9146 219.6693 0014312  99.8988 260.3846 14.90424184236695
FUNCUBE-3 (EO-79)       
1 40025U 14033R   18300.82257791  .00000241  00000-0  31686-4 0  9990
2 40025  97.9015 215.9165 0013840 106.6795 253.5942 14.88799707236015
NUDT-PHONESAT           
1 40900U 15049B   18301.02586324  .00001902  00000-0  86638-4 0  9992
2 40900  97.4415 307.7934 0011636 287.7375 130.1976 15.21851007172113
ZDPS 2A                 
1 40901U 15049C   18301.24616032  .00000756  00000-0  41230-4 0  9992
2 40901  97.4597 305.5445 0012298 299.6510 116.3919 15.17324141171836
ZDPS 2B                 
1 40902U 15049D   18301.04566722  .00000709  00000-0  39087-4 0  9996
2 40902  97.4510 303.1617 0012427 297.2896 148.0440 15.17109682171788
XW-2A                   
1 40903U 15049E   18301.07162502  .00001689  00000-0  42994-4 0  9997
2 40903  97.3702 337.1873 0012291 272.4730 171.3676 15.40991976174260
KAITUO 1A               
1 40904U 15049F   18301.23124428  .00000266  00000-0  17717-4 0  9996
2 40904  97.4625 302.3694 0013458 301.7305 187.0346 15.15148112171646
2015-049G               
1 40905U 15049G   18301.07363211  .00000529  00000-0  32619-4 0  9994
2 40905  97.4634 300.0785 0014411 294.6830 151.1510 15.14092338171525
XW-2C                   
1 40906U 15049H   18300.99488193  .00000829  00000-0  47360-4 0  9994
2 40906  97.4630 302.0927 0013607 293.4603 118.9306 15.15371464171607
XW-2D                   
1 40907U 15049J   18301.00057976  .00000826  00000-0  47036-4 0  9996
2 40907  97.4607 301.7835 0012716 290.3381 127.5792 15.15535336171611
LILACSAT 2              
1 40908U 15049K   18301.23772284  .00000123  00000-0  10466-4 0  9995
2 40908  97.4720 301.1975 0014543 292.7145 126.6239 15.13617971171497
XW-2F                   
1 40910U 15049M   18301.23653098  .00000807  00000-0  44388-4 0  9998
2 40910  97.4601 303.5730 0013359 283.8731 132.3440 15.16813749171626
XW-2B                   
1 40911U 15049N   18301.02437150  .00000459  00000-0  27736-4 0  9996
2 40911  97.4638 302.3911 0012735 291.5018 132.9029 15.15471626171516
KAITUO 1B               
1 40912U 15049P   18301.08789704  .00001000  00000-0  50884-4 0  9991
2 40912  97.4512 306.5712 0013470 268.8105 132.1044 15.19066625171842
TIANWANG 1C (TW-1C)     
1 40926U 15051B   18301.12004832  .00008568  00000-0  14774-3 0  9999
2 40926  97.1712 342.9165 0010906 145.1814 272.1987 15.51217444173900
TIANWANG 1A (TW-1A)     
1 40928U 15051D   18301.09749995  .00002312  00000-0  61081-4 0  9998
2 40928  97.1738 332.4240 0010890 191.6684 229.3256 15.39393308173229
LAPAN-A2 (IO-86)        
1 40931U 15052B   18300.78311970  .00000654  00000-0  21359-5 0  9998
2 40931   6.0009 284.6063 0012718  83.3750 276.7845 14.76588711166637
E-ST@R-II               
1 41459U 16025D   18301.18810592  .00001324  00000-0  71999-4 0  9993
2 41459  98.1253  10.8664 0171183  62.8236 299.0328 15.04793396137423
AAUSAT 4                
1 41460U 16025E   18301.09969975  .00001198  00000-0  64749-4 0  9999
2 41460  98.1176  11.5016 0161944  57.7671 303.9131 15.06382457137496
NUSAT 1 (LO-87)         
1 41557U 16033B   18301.22543793  .00001015  00000-0  40962-4 0  9995
2 41557  97.4318  25.0155 0014132  46.0651 314.1751 15.27046132134468
BEESAT-4                
1 41619U 16040W   18300.71640492  .00001210  00000-0  55159-4 0  9990
2 41619  97.4005   1.9496 0012993 121.8390 238.4113 15.22488208118254
ALSAT 1N                
1 41789U 16059G   18301.15011355  .00000079  00000-0  24022-4 0  9994
2 41789  98.1048   1.9521 0029114  31.8541 328.4423 14.64189641111472
CAS-2T & KS-1Q          
1 41847U 16066G   18300.94948494  .00000009  00000-0  12279-4 0  9990
2 41847  98.7384 332.5581 0365643 209.8559 148.1319 14.37931495103408
NAYIF-1 (EO-88)         
1 42017U 17008BX  18300.73778898  .00001284  00000-0  54602-4 0  9995
2 42017  97.4342   4.9340 0004695 274.3422  85.7279 15.24834841 94262
LILACSAT-1              
1 42725U 98067ME  18301.10310324  .00045328  00000-0  26746-3 0  9997
2 42725  51.6370  36.6773 0004710   7.1895  54.6807 15.77671914 81443
MAX VALIER SAT          
1 42778U 17036P   18300.77181811  .00000803  00000-0  38655-4 0  9993
2 42778  97.3884 358.1905 0011565 331.9544  28.1068 15.21570387 74664
FOX-1B (AO-91)          
1 43017U 17073E   18300.75627962  .00000318  00000-0  30679-4 0  9990
2 43017  97.7119 226.3974 0258630 199.7670 159.3376 14.78251007 50696
FOX-1D (AO-92)          
1 43137U 18004AC  18300.76376633  .00000838  00000-0  38685-4 0  9997
2 43137  97.5191   3.7400 0009453   6.7731 353.3631 15.22982653 43881
